# From MPC 75007
C/1995 O1 (Hale-Bopp),e,89.3793,282.4988,130.8792,184.6267,0.0003929,0.99491355,0.0000,03/29.3331/1997,2000,g -2.0,4.0
# From NK 1615
P/1996 R2 (Lagerkvist),e,2.6015,40.0577,333.2005,3.773828,0.1344407,0.31238166,226.3629,05/24.0/2016,2000,g 11.5,4.0
# From MPC 30063
P/1997 B1 (Kobayashi),e,12.3747,329.0208,183.3565,8.558205,0.0393668,0.76115865,276.0530,05/24.0/2016,2000,g 15.0,2.0
# From MPC 75703
P/1998 VS24 (LINEAR),e,5.0230,159.0569,245.0708,4.532928,0.1021259,0.24167554,298.1271,05/24.0/2016,2000,g 13.0,2.0
# From NK 1780
P/1999 D1 (Hermann),e,21.3554,348.7461,174.0749,5.755748,0.0713759,0.71409733,89.3801,05/24.0/2016,2000,g 15.0,4.0
# From CCO 17
P/1999 R1 (SOHO),e,12.5625,359.6595,48.9508,2.516186,0.2469392,0.97872208,0.0000,09/04.0329/2015,2000,g 27.0,6.0
# From NK 731
P/1999 RO28 (LONEOS),e,8.1983,148.2558,219.7974,3.497335,0.1506948,0.65741715,188.6424,05/24.0/2016,2000,g 20.0,2.0
# From MPC 75704
P/1999 XN120 (Catalina),e,5.0277,285.3075,161.9992,4.184461,0.1151449,0.21203510,315.7421,05/24.0/2016,2000,g 13.5,2.0
# From NK 744
P/2000 R2 (LINEAR),e,11.8378,160.6782,176.6150,3.442921,0.1542814,0.54107483,188.3105,05/24.0/2016,2000,g 18.0,4.0
# From MPC 75704
P/2000 S1 (Skiff),e,21.0185,28.1607,309.0964,6.621730,0.0578425,0.61700825,337.0731,05/24.0/2016,2000,g 10.0,4.0
# From MPC 73461
P/2000 S4 (LINEAR-Spacewatch),e,28.4593,174.1065,172.5096,7.128777,0.0517823,0.67974993,296.6910,05/24.0/2016,2000,g 17.5,2.0
# From MPC 75704
P/2001 BB50 (LINEAR-NEAT),e,10.3674,351.1788,193.5450,5.730331,0.0718513,0.58751630,45.1331,05/24.0/2016,2000,g 13.0,4.0
# From MPC 43019
P/2001 H5 (NEAT),e,8.3813,328.6913,224.7380,6.090777,0.0655685,0.60008951,14.1129,05/24.0/2016,2000,g 12.0,4.0
# From MPC 75704
P/2001 Q6 (NEAT),e,56.8600,22.0109,43.1613,7.926100,0.0441687,0.82333603,234.5862,05/24.0/2016,2000,g 13.5,4.0
# From MPC 82311
P/2001 R6 (LINEAR-Skiff),e,17.3782,67.3360,308.4803,4.178370,0.1153968,0.47532332,260.3491,05/24.0/2016,2000,g 13.0,4.0
# From MPC 75704
P/2001 T3 (NEAT),e,19.3989,55.1811,356.8416,6.439772,0.0603113,0.61435032,314.8988,05/24.0/2016,2000,g 12.0,4.0
# From MPC 47727
P/2002 EJ57 (LINEAR),e,4.9772,330.4636,166.9335,6.473503,0.0598405,0.59407290,314.8054,05/24.0/2016,2000,g 12.5,4.0
# From MPC 82311
P/2002 T5 (LINEAR),e,30.8940,123.1224,327.0694,6.981505,0.0534294,0.43785498,251.4027,05/24.0/2016,2000,g  8.0,4.0
# From MPC 75704
P/2002 T6 (NEAT-LINEAR),e,11.0009,208.7698,217.7818,7.636113,0.0467085,0.55848436,220.1406,05/24.0/2016,2000,g 10.5,4.0
# From MPC 75007
C/2002 VQ94 (LINEAR),e,70.4551,34.9054,100.0902,194.2286,0.0003641,0.96500148,1.3687,05/24.0/2016,2000,g  9.5,2.0
# From MPC 50354
P/2003 F2 (NEAT),e,11.6048,359.1331,191.5863,6.503782,0.0594231,0.54254630,284.7545,05/24.0/2016,2000,g 16.5,2.0
# From MPC 75704
P/2003 L1 (Scotti),e,9.0198,226.0503,354.4944,6.726816,0.0564924,0.25262080,274.9518,05/24.0/2016,2000,g  8.5,4.0
# From MPC 50139
P/2003 QX29 (NEAT),e,11.3806,264.5237,37.2095,8.056058,0.0431043,0.47004110,214.8363,05/24.0/2016,2000,g  8.5,4.0
# From MPC 75705
P/2003 SQ215 (NEAT-LONEOS),e,5.5821,257.2447,137.5487,5.479923,0.0768320,0.58391834,340.4971,05/24.0/2016,2000,g 14.0,2.0
# From MPC 99268
P/2003 T12 (SOHO),e,11.4579,176.4016,217.7366,2.570200,0.2391959,0.77543874,18.0603,05/24.0/2016,2000,g 17.0,4.0
# From MPC 75705
P/2003 U3 (NEAT),e,7.0039,348.0222,356.9480,5.062105,0.0865381,0.50865188,50.7822,05/24.0/2016,2000,g 13.5,4.0
# From MPC 82312
P/2004 A1 (LONEOS),e,10.5684,124.9355,21.6592,7.929856,0.0441373,0.31253341,188.4301,05/24.0/2016,2000,g  6.5,4.0
# From MPC 54558
P/2004 DO29 (Spacewatch-LINEAR),e,14.5408,147.5263,40.5525,7.282625,0.0501501,0.44268641,213.1343,05/24.0/2016,2000,g 13.5,2.0
# From MPC 54823
P/2004 FY140 (LINEAR),e,2.1369,326.7758,242.0543,4.892303,0.0910823,0.17020977,27.6494,05/24.0/2016,2000,g 12.5,2.0
# From MPC 53304
P/2004 R3 (LINEAR-NEAT),e,12.9246,306.7579,41.2154,4.704990,0.0965753,0.26761032,170.1265,05/24.0/2016,2000,g 14.5,4.0
# From CCO 17
P/2004 T1 (LINEAR-NEAT),e,11.0336,51.4644,336.3727,3.475256,0.1521331,0.50633145,282.8177,05/24.0/2016,2000,g 12.5,4.0
# From MPC 55521
P/2004 V3 (Siding Spring),e,50.3620,356.0995,322.3604,7.145722,0.0515982,0.44453812,218.3495,05/24.0/2016,2000,g 11.5,4.0
# From MPC 75705
P/2004 V5 (LINEAR-Hill),e,19.3530,47.7473,88.0411,7.951148,0.0439602,0.44666700,179.9192,05/24.0/2016,2000,g  8.0,4.0
# From MPC 75705
P/2004 WR9 (LINEAR),e,4.9312,24.8782,72.1513,6.136578,0.0648358,0.68324193,268.7002,05/24.0/2016,2000,g 14.5,4.0
# From MPC 54164
P/2005 E1 (Tubbiolo),e,4.2704,335.7138,194.0548,7.032612,0.0528481,0.37683731,218.3338,05/24.0/2016,2000,g 10.0,4.0
# From MPC 54823
P/2005 GF8 (LONEOS),e,1.1907,314.9288,285.2728,5.857572,0.0695229,0.51577171,274.8273,05/24.0/2016,2000,g 11.5,4.0
# From MPC 75290
P/2005 JN (Spacewatch),e,8.8558,70.7668,153.4011,3.497954,0.1506548,0.34855907,240.9668,05/24.0/2016,2000,g 14.0,4.0
# From MPC 79019
P/2005 J1 (McNaught),e,31.7537,268.7921,338.9097,3.569148,0.1461697,0.56987621,232.5170,05/24.0/2016,2000,g 16.5,4.0
# From MPC 75705
P/2005 JD108 (Catalina-NEAT),e,3.2756,223.9493,90.5064,6.481919,0.0597240,0.37442471,237.0723,05/24.0/2016,2000,g 10.0,4.0
# From MPC 74246
P/2005 L1 (McNaught),e,7.7321,138.2587,149.5072,3.983058,0.1239879,0.20760788,113.1421,05/24.0/2016,2000,g  9.5,4.0
# From MPC 87062
C/2005 L3 (McNaught),e,139.4406,288.8195,47.0371,2458,0.0000081,0.99772625,0.0000,01/11.3748/2008,2000,g  4.0,4.0
# From MPC 75706
P/2005 R1 (NEAT),e,15.4849,257.9794,118.8269,5.518548,0.0760268,0.62531150,295.8681,05/24.0/2016,2000,g 14.0,4.0
# From MPC 75706
P/2005 S2 (Skiff),e,3.1365,161.2002,230.6131,8.019271,0.0434012,0.19581058,157.1535,05/24.0/2016,2000,g  7.5,4.0
# From MPC 75706
P/2005 S3 (Read),e,3.4891,273.1889,140.6051,4.880435,0.0914147,0.42205541,345.2118,05/24.0/2016,2000,g 12.0,4.0
# From MPC 75706
P/2005 SB216 (LONEOS),e,24.0536,1.4045,83.6044,7.110078,0.0519867,0.46388225,176.2666,05/24.0/2016,2000,g 12.0,2.0
# From MPC 55717
P/2005 T2 (Christensen),e,8.2963,260.3001,59.1977,3.836140,0.1311784,0.41836945,174.2000,05/24.0/2016,2000,g 14.5,4.0
# From MPC 73461
P/2005 T3 (Read),e,6.2470,27.9603,9.0467,7.558364,0.0474310,0.17097153,179.7641,05/24.0/2016,2000,g  9.0,4.0
# From MPC 73461
P/2005 T4 (SWAN),e,160.0763,25.3972,41.3211,9.356759,0.0344363,0.93156541,133.6419,05/24.0/2016,2000,g 15.0,4.0
# From MPC 75706
P/2005 T5 (Broughton),e,21.3389,57.0177,304.6749,7.290556,0.0500683,0.54996033,193.7022,05/24.0/2016,2000,g 11.0,4.0
# From MPC 56954
P/2005 W3 (Kowalski),e,16.4826,210.5502,200.0489,6.338464,0.0617629,0.54287266,239.8197,05/24.0/2016,2000,g 12.0,4.0
# From MPC 75706
P/2005 XA54 (LONEOS-Hill),e,17.1435,143.7770,15.1025,6.050540,0.0662236,0.71105829,246.7715,05/24.0/2016,2000,g 14.0,4.0
# From MPC 75706
P/2005 Y2 (McNaught),e,19.1136,94.5453,194.4525,6.327557,0.0619227,0.46582064,259.9839,05/24.0/2016,2000,g  9.0,4.0
# From MPC 75707
P/2006 D1 (Hill),e,17.3712,359.9700,119.4451,5.566065,0.0750553,0.65986884,289.3464,05/24.0/2016,2000,g 16.0,4.0
# From MPC 75707
P/2006 F1 (Kowalski),e,21.2811,124.7493,186.0393,4.668304,0.0977159,0.11976280,295.5866,05/24.0/2016,2000,g  8.0,4.0
# From MPC 56954
P/2006 F4 (Spacewatch),e,12.3879,184.0456,30.9967,3.529208,0.1486580,0.33762373,186.7281,05/24.0/2016,2000,g 15.0,4.0
# From MPC 58118
P/2006 H1 (McNaught),e,12.8839,0.0612,310.0101,5.721360,0.0720203,0.58086019,266.7026,05/24.0/2016,2000,g 12.5,4.0
# From MPC 75707
P/2006 HR30 (Siding Spring),e,31.9134,309.6136,117.6245,7.806775,0.0451852,0.84227867,155.0365,05/24.0/2016,2000,g 11.0,4.0
# From MPC 73914
C/2006 K4 (NEAT),e,111.2688,116.6507,233.5867,1038,0.0000295,0.99692495,0.0000,11/25.0479/2007,2000,g  6.0,4.0
# From MPC 82313
C/2006 OF2 (Broughton),h,09/12.4910/2008,30.0788,318.3801,96.0332,1.002291,2.457260,2000,5.5,4.0
# From MPC 72849
C/2006 Q1 (McNaught),e,59.1521,199.3198,344.3556,1797,0.0000129,0.99846662,0.0000,07/04.7218/2008,2000,g  5.0,4.0
# From MPC 73461
P/2006 R1 (Siding Spring),e,160.0720,218.8377,249.3838,5.629915,0.0737822,0.70535768,262.5469,05/24.0/2016,2000,g 16.0,4.0
# From MPC 69905
P/2006 S1 (Christensen),e,12.2689,208.2266,133.7688,3.523273,0.1490337,0.60616772,174.2764,05/24.0/2016,2000,g 17.5,4.0
# From MPC 98557
C/2006 S3 (LONEOS),h,04/13.8480/2012,166.0244,38.3533,140.0005,1.000334,5.132737,2000,2.0,4.0
# From MPC 75707
P/2006 S4 (Christensen),e,39.5686,36.1269,305.7908,6.266263,0.0628335,0.50591233,229.9298,05/24.0/2016,2000,g 11.0,4.0
# From MPC 60465
C/2006 S5 (Hill),e,10.1421,281.3784,182.3593,98.36614,0.0010103,0.97313672,0.0000,12/08.9509/2007,2000,g  8.0,4.0
# From MPC 66204
C/2006 U6 (Spacewatch),e,84.7072,179.9716,276.6067,2655,0.0000072,0.99905760,0.0000,06/03.6546/2008,2000,g  8.0,4.0
# From MPC 62580
C/2006 V1 (Catalina),e,31.4627,335.5916,252.9251,153.6582,0.0005175,0.98277276,0.0000,11/26.0207/2007,2000,g  8.0,4.0
# From MPC 75707
P/2006 W1 (Gibbs),e,18.5264,152.7078,231.7215,5.802371,0.0705173,0.70535971,262.0459,05/24.0/2016,2000,g 12.0,4.0
# From MPC 82313
C/2006 W3 (Christensen),e,127.0846,113.5922,133.3125,9004,0.0000012,0.99965496,0.0000,07/07.2985/2009,2000,g  5.0,4.0
# From MPC 75707
P/2007 A2 (Christensen),e,26.5397,300.9822,186.9028,6.307985,0.0622111,0.55887458,212.0355,05/24.0/2016,2000,g 13.5,4.0
# From MPC 59319
P/2007 B1 (Christensen),e,12.3805,77.7249,46.8775,5.807313,0.0704273,0.58179059,239.8173,05/24.0/2016,2000,g 13.5,4.0
# From MPC 66700
C/2007 B2 (Skiff),e,27.6041,14.6908,206.0713,581.6411,0.0000703,0.99490818,0.0000,08/22.8983/2008,2000,g  6.0,4.0
# From MPC 75707
P/2007 C2 (Catalina),e,8.7086,275.8244,179.5589,7.023146,0.0529549,0.46353561,168.5274,05/24.0/2016,2000,g 10.0,4.0
# From MPC 84315
C/2007 D1 (LINEAR),e,41.4860,170.9483,340.2235,2599,0.0000074,0.99661145,0.0000,06/17.5276/2007,2000,g  3.5,4.0
# From MPC 66464
C/2007 G1 (LINEAR),e,88.4602,79.0220,223.8773,3556,0.0000046,0.99925543,0.0000,11/13.0717/2008,2000,g  5.5,4.0
# From MPC 82314
